IRIDIUM 155             
1 43573U 18061E   23087.67433130  .00000617  00000+0  21310-3 0  9998
2 43573  86.4045 188.3604 0001894  99.6153 260.5257 14.34222975244721
IRIDIUM 154             
1 43574U 18061F   23087.65530071  .00000401  00000+0  13604-3 0  9997
2 43574  86.4047 188.4447 0002265  90.0865 270.0590 14.34221036244776
IRIDIUM 163             
1 43575U 18061G   23087.77581330  .00000147  00000+0  45528-4 0  9993
2 43575  86.4045 188.3463 0002295  98.4318 261.7138 14.34219788244765
IRIDIUM 156             
1 43576U 18061H   23087.68066301  .00000633  00000+0  21880-3 0  9994
2 43576  86.4046 188.3916 0002206 104.8697 255.2743 14.34227182244749
IRIDIUM 164             
1 43577U 18061J   23088.35933485  .00000717  00000+0  24886-3 0  9998
2 43577  86.4046 188.1308 0002355  95.1526 264.9939 14.34218701244887
IRIDIUM 159             
1 43578U 18061K   23088.32761728  .00000690  00000+0  23943-3 0  9998
2 43578  86.4044 188.1058 0002163  93.5935 266.5508 14.34222957244845
IRIDIUM 180             
1 43922U 19002A   23088.53641960  .00000531  00000+0  18249-3 0  9992
2 43922  86.3943 124.9788 0002415  91.8406 268.3066 14.34220182220488
IRIDIUM 176             
1 43923U 19002B   23088.52155052  .00001880  00000+0  29421-3 0  9996
2 43923  86.6076 125.0265 0002382  99.3502 260.7984 14.72264449226278
IRIDIUM 168             
1 43924U 19002C   23087.55331178  .00000479  00000+0  16404-3 0  9994
2 43924  86.3948 125.4339 0002311  89.8646 270.2814 14.34222389220328
IRIDIUM 173             
1 43925U 19002D   23087.47085723  .00000484  00000+0  16556-3 0  9992
2 43925  86.3944 125.4055 0002438  90.2241 269.9235 14.34224228220299
IRIDIUM 169             
1 43926U 19002E   23088.55107060  .00000692  00000+0  21962-3 0  9990
2 43926  86.4269 156.5378 0001820 231.2067 128.8969 14.38610771221206
IRIDIUM 172             
1 43927U 19002F   23088.51105035  .00000521  00000+0  17903-3 0  9998
2 43927  86.3942 124.9748 0002323  91.4544 268.6918 14.34219221220453
IRIDIUM 175             
1 43928U 19002G   23088.51510117  .00001912  00000+0  29913-3 0  9999
2 43928  86.1486 123.3459 0002417  97.6984 262.4507 14.72257880226263
IRIDIUM 171             
1 43929U 19002H   23087.09664539  .00000478  00000+0  16373-3 0  9992
2 43929  86.3953 125.7419 0002404  90.1596 269.9876 14.34223671220242
IRIDIUM 170             
1 43930U 19002J   23088.52772756  .00001898  00000+0  29697-3 0  9994
2 43930  86.6075 125.0290 0002443  95.9291 264.2205 14.72269901226282
IRIDIUM 167             
1 43931U 19002K   23088.48567598  .00000517  00000+0  17768-3 0  9999
2 43931  86.3942 124.9974 0002496  89.4743 270.6739 14.34221310220443
